*******************************************************************************
Ephemeris / WWW_USER Mon Mar 10 06:54:51 2025 Pasadena, USA      / Horizons    
*******************************************************************************
Target body name: (2018 WD2)                      {source: JPL#7}
Center body name: Earth (399)                     {source: DE441}
Center-site name: Mauna Kea
*******************************************************************************
Start time      : A.D. 2019-Jan-19 04:15:00.0000 UT      
Stop  time      : A.D. 2019-Jan-19 16:49:00.0000 UT      
Step-size       : 1 minutes
*******************************************************************************
Target pole/equ : undefined
Target radii    : undefined                                                    
Center geodetic : 204.5278, 19.8260847, 4.21024   {E-lon(deg),Lat(deg),Alt(km)}
Center cylindric: 204.5278, 6006.35451, 2151.0229 {E-lon(deg),Dxy(km),Dz(km)}
Center pole/equ : ITRF93                          {East-longitude positive}
Center radii    : 6378.137, 6378.137, 6356.752 km {Equator_a, b, pole_c}       
Target primary  : Sun
Vis. interferer : MOON (R_eq= 1737.400) km        {source: DE441}
Rel. light bend : Sun                             {source: DE441}
Rel. lght bnd GM: 1.3271E+11 km^3/s^2                                          
Small-body perts: Yes                             {source: SB441-N16}
Atmos refraction: NO (AIRLESS)
RA format       : HMS
Time format     : CAL 
Calendar mode   : Mixed Julian/Gregorian
RTS-only print  : NO       
EOP file        : eop.250307.p250603                                           
EOP coverage    : DATA-BASED 1962-JAN-20 TO 2025-MAR-07. PREDICTS-> 2025-JUN-02
Units conversion: 1 au= 149597870.700 km, c= 299792.458 km/s, 1 day= 86400.0 s 
Table cut-offs 1: Elevation (-90.0deg=NO ),Airmass (>38.000=NO), Daylight (YES)
Table cut-offs 2: Solar elongation (  0.0,180.0=NO ),Local Hour Angle( 0.0=NO )
Table cut-offs 3: RA/DEC angular rate (     0.0=NO )                           
*******************************************************************************
Initial IAU76/J2000 heliocentric ecliptic osculating elements (au, days, deg.):
  EPOCH=  2458442.5 ! 2018-Nov-20.00 (TDB)         Residual RMS= .32422        
   EC= .524986067713519    QR= .9778174985080528   TP= 2458471.2675125618      
   OM= 251.0855257113189   W=  198.8561547827716   IN= 2.860917524648221       
  Equivalent ICRF heliocentric cartesian coordinates (au, au/d):
   X= 5.933978759455335E-01  Y= 7.796199626272187E-01  Z= 3.534710331364960E-01
  VX=-1.894544763705440E-02 VY= 7.774789113426014E-03 VZ= 2.252803318104249E-03
Asteroid physical parameters (km, seconds, rotational period in hours):        
   GM= n.a.                RAD= n.a.               ROTPER= n.a.                
   H= 26.2                 G= .150                 B-V= n.a.                   
                           ALBEDO= n.a.            STYP= n.a.                  
*******************************************************************************
 Date__(UT)__HR:MN     R.A._________(ICRF)_________DEC
******************************************************
$$SOE
 2019-Jan-19 12:27  m  12 16 23.204100 -17 08 32.13688
 2019-Jan-19 12:28  m  12 16 23.181962 -17 08 32.05118
 2019-Jan-19 12:29  m  12 16 23.159788 -17 08 31.96525
 2019-Jan-19 12:30  m  12 16 23.137578 -17 08 31.87909
 2019-Jan-19 12:31  m  12 16 23.115333 -17 08 31.79270
 2019-Jan-19 12:32  m  12 16 23.093053 -17 08 31.70608
 2019-Jan-19 12:33  m  12 16 23.070738 -17 08 31.61923
 2019-Jan-19 12:34  m  12 16 23.048388 -17 08 31.53215
 2019-Jan-19 12:35  m  12 16 23.026004 -17 08 31.44483
 2019-Jan-19 12:36  m  12 16 23.003586 -17 08 31.35728
 2019-Jan-19 12:37  m  12 16 22.981134 -17 08 31.26951
 2019-Jan-19 12:38  m  12 16 22.958648 -17 08 31.18149
 2019-Jan-19 12:39  m  12 16 22.936128 -17 08 31.09324
 2019-Jan-19 12:40  m  12 16 22.913575 -17 08 31.00476
 2019-Jan-19 12:41  m  12 16 22.890989 -17 08 30.91604
 2019-Jan-19 12:42  m  12 16 22.868371 -17 08 30.82709
 2019-Jan-19 12:43  m  12 16 22.845719 -17 08 30.73790
 2019-Jan-19 12:44  m  12 16 22.823036 -17 08 30.64847
 2019-Jan-19 12:45  m  12 16 22.800320 -17 08 30.55881
 2019-Jan-19 12:46  m  12 16 22.777573 -17 08 30.46890
 2019-Jan-19 12:47  m  12 16 22.754793 -17 08 30.37876
 2019-Jan-19 12:48  m  12 16 22.731983 -17 08 30.28838
 2019-Jan-19 12:49  m  12 16 22.709141 -17 08 30.19775
 2019-Jan-19 12:50  m  12 16 22.686268 -17 08 30.10689
 2019-Jan-19 12:51  m  12 16 22.663365 -17 08 30.01579
 2019-Jan-19 12:52  m  12 16 22.640431 -17 08 29.92444
 2019-Jan-19 12:53  m  12 16 22.617467 -17 08 29.83285
 2019-Jan-19 12:54  m  12 16 22.594473 -17 08 29.74102
 2019-Jan-19 12:55  m  12 16 22.571449 -17 08 29.64895
 2019-Jan-19 12:56  m  12 16 22.548395 -17 08 29.55663
 2019-Jan-19 12:57  m  12 16 22.525313 -17 08 29.46407
 2019-Jan-19 12:58  m  12 16 22.502201 -17 08 29.37126
 2019-Jan-19 12:59  m  12 16 22.479061 -17 08 29.27821
 2019-Jan-19 13:00  m  12 16 22.455892 -17 08 29.18491
 2019-Jan-19 13:01  m  12 16 22.432694 -17 08 29.09137
 2019-Jan-19 13:02  m  12 16 22.409469 -17 08 28.99758
 2019-Jan-19 13:03  m  12 16 22.386216 -17 08 28.90354
 2019-Jan-19 13:04  m  12 16 22.362935 -17 08 28.80925
 2019-Jan-19 13:05  m  12 16 22.339627 -17 08 28.71472
 2019-Jan-19 13:06  m  12 16 22.316292 -17 08 28.61993
 2019-Jan-19 13:07  m  12 16 22.292930 -17 08 28.52490
 2019-Jan-19 13:08  m  12 16 22.269541 -17 08 28.42962
 2019-Jan-19 13:09  m  12 16 22.246126 -17 08 28.33409
 2019-Jan-19 13:10  m  12 16 22.222685 -17 08 28.23831
 2019-Jan-19 13:11  m  12 16 22.199218 -17 08 28.14227
 2019-Jan-19 13:12  m  12 16 22.175726 -17 08 28.04599
 2019-Jan-19 13:13  m  12 16 22.152208 -17 08 27.94945
 2019-Jan-19 13:14  m  12 16 22.128665 -17 08 27.85266
 2019-Jan-19 13:15  m  12 16 22.105098 -17 08 27.75562
 2019-Jan-19 13:16  m  12 16 22.081505 -17 08 27.65832
 2019-Jan-19 13:17  m  12 16 22.057888 -17 08 27.56078
 2019-Jan-19 13:18  m  12 16 22.034248 -17 08 27.46297
 2019-Jan-19 13:19  m  12 16 22.010583 -17 08 27.36492
 2019-Jan-19 13:20  m  12 16 21.986895 -17 08 27.26660
 2019-Jan-19 13:21  m  12 16 21.963183 -17 08 27.16804
 2019-Jan-19 13:22  m  12 16 21.939448 -17 08 27.06921
 2019-Jan-19 13:23  m  12 16 21.915691 -17 08 26.97013
 2019-Jan-19 13:24  m  12 16 21.891911 -17 08 26.87080
 2019-Jan-19 13:25  m  12 16 21.868108 -17 08 26.77121
 2019-Jan-19 13:26  m  12 16 21.844284 -17 08 26.67136
 2019-Jan-19 13:27  m  12 16 21.820437 -17 08 26.57125
 2019-Jan-19 13:28  m  12 16 21.796569 -17 08 26.47089
 2019-Jan-19 13:29  m  12 16 21.772680 -17 08 26.37026
 2019-Jan-19 13:30  m  12 16 21.748769 -17 08 26.26938
 2019-Jan-19 13:31  m  12 16 21.724838 -17 08 26.16824
 2019-Jan-19 13:32  m  12 16 21.700886 -17 08 26.06684
 2019-Jan-19 13:33  m  12 16 21.676914 -17 08 25.96518
 2019-Jan-19 13:34  m  12 16 21.652922 -17 08 25.86326
 2019-Jan-19 13:35  m  12 16 21.628910 -17 08 25.76108
 2019-Jan-19 13:36  m  12 16 21.604879 -17 08 25.65863
 2019-Jan-19 13:37  m  12 16 21.580828 -17 08 25.55593
 2019-Jan-19 13:38  m  12 16 21.556759 -17 08 25.45297
 2019-Jan-19 13:39  m  12 16 21.532670 -17 08 25.34974
 2019-Jan-19 13:40  m  12 16 21.508563 -17 08 25.24625
 2019-Jan-19 13:41  m  12 16 21.484438 -17 08 25.14250
 2019-Jan-19 13:42  m  12 16 21.460295 -17 08 25.03849
 2019-Jan-19 13:43  m  12 16 21.436134 -17 08 24.93421
 2019-Jan-19 13:44  m  12 16 21.411956 -17 08 24.82967
 2019-Jan-19 13:45  m  12 16 21.387760 -17 08 24.72487
 2019-Jan-19 13:46  m  12 16 21.363548 -17 08 24.61980
 2019-Jan-19 13:47  m  12 16 21.339319 -17 08 24.51447
 2019-Jan-19 13:48  m  12 16 21.315073 -17 08 24.40888
 2019-Jan-19 13:49  m  12 16 21.290811 -17 08 24.30302
 2019-Jan-19 13:50  m  12 16 21.266534 -17 08 24.19689
 2019-Jan-19 13:51  m  12 16 21.242241 -17 08 24.09050
 2019-Jan-19 13:52  m  12 16 21.217932 -17 08 23.98385
 2019-Jan-19 13:53  m  12 16 21.193608 -17 08 23.87693
 2019-Jan-19 13:54  m  12 16 21.169270 -17 08 23.76974
 2019-Jan-19 13:55  m  12 16 21.144917 -17 08 23.66228
 2019-Jan-19 13:56  m  12 16 21.120549 -17 08 23.55456
 2019-Jan-19 13:57  m  12 16 21.096168 -17 08 23.44658
 2019-Jan-19 13:58  m  12 16 21.071773 -17 08 23.33832
 2019-Jan-19 13:59  m  12 16 21.047364 -17 08 23.22980
 2019-Jan-19 14:00  m  12 16 21.022942 -17 08 23.12102
 2019-Jan-19 14:01  m  12 16 20.998507 -17 08 23.01196
 2019-Jan-19 14:02  m  12 16 20.974059 -17 08 22.90264
 2019-Jan-19 14:03  m  12 16 20.949599 -17 08 22.79305
 2019-Jan-19 14:04  m  12 16 20.925127 -17 08 22.68319
 2019-Jan-19 14:05  m  12 16 20.900642 -17 08 22.57306
 2019-Jan-19 14:06  m  12 16 20.876146 -17 08 22.46266
 2019-Jan-19 14:07  m  12 16 20.851639 -17 08 22.35200
 2019-Jan-19 14:08  m  12 16 20.827120 -17 08 22.24106
 2019-Jan-19 14:09  m  12 16 20.802591 -17 08 22.12986
 2019-Jan-19 14:10  m  12 16 20.778051 -17 08 22.01839
 2019-Jan-19 14:11  m  12 16 20.753500 -17 08 21.90665
 2019-Jan-19 14:12  m  12 16 20.728940 -17 08 21.79464
 2019-Jan-19 14:13  m  12 16 20.704370 -17 08 21.68236
 2019-Jan-19 14:14  m  12 16 20.679790 -17 08 21.56981
 2019-Jan-19 14:15  m  12 16 20.655201 -17 08 21.45699
 2019-Jan-19 14:16  m  12 16 20.630603 -17 08 21.34389
 2019-Jan-19 14:17  m  12 16 20.605996 -17 08 21.23053
 2019-Jan-19 14:18  m  12 16 20.581381 -17 08 21.11690
 2019-Jan-19 14:19  m  12 16 20.556757 -17 08 21.00300
 2019-Jan-19 14:20  m  12 16 20.532126 -17 08 20.88883
 2019-Jan-19 14:21  m  12 16 20.507487 -17 08 20.77438
 2019-Jan-19 14:22  m  12 16 20.482840 -17 08 20.65967
 2019-Jan-19 14:23  m  12 16 20.458186 -17 08 20.54469
 2019-Jan-19 14:24  m  12 16 20.433526 -17 08 20.42943
 2019-Jan-19 14:25  m  12 16 20.408859 -17 08 20.31390
 2019-Jan-19 14:26  m  12 16 20.384186 -17 08 20.19810
 2019-Jan-19 14:27  m  12 16 20.359506 -17 08 20.08203
 2019-Jan-19 14:28  m  12 16 20.334821 -17 08 19.96569
 2019-Jan-19 14:29  m  12 16 20.310130 -17 08 19.84908
